[{"OBJECT_NAME":"STARLINK-30939","OBJECT_ID":"2023-178V","EPOCH":"2026-03-09T23:17:11.646816","MEAN_MOTION":15.3017535,"ECCENTRICITY":9.023e-5,"INCLINATION":53.1615,"RA_OF_ASC_NODE":359.8204,"ARG_OF_PERICENTER":65.0576,"MEAN_ANOMALY":295.0518,"EPHEMERIS_TYPE":0,"CLASSIFICATION_TYPE":"U","NORAD_CAT_ID":58393,"ELEMENT_SET_NO":999,"REV_AT_EPOCH":12980,"BSTAR":0.00011407549,"MEAN_MOTION_DOT":3.019e-5,"MEAN_MOTION_DDOT":0},{"OBJECT_NAME":"TEVEL2-5","OBJECT_ID":"2025-052E","EPOCH":"2026-03-09T23:11:54.246048","MEAN_MOTION":15.30817434,"ECCENTRICITY":0.00047002,"INCLINATION":97.4013,"RA_OF_ASC_NODE":325.3677,"ARG_OF_PERICENTER":95.3936,"MEAN_ANOMALY":264.7842,"EPHEMERIS_TYPE":0,"CLASSIFICATION_TYPE":"U","NORAD_CAT_ID":63214,"ELEMENT_SET_NO":999,"REV_AT_EPOCH":5491,"BSTAR":0.00071764727,"MEAN_MOTION_DOT":0.00021339,"MEAN_MOTION_DDOT":0}]
